{"spkid": "50753601", "covariance": {"labels": ["e", "q", "tp", "node", "peri", "i"], "elements": [{"label": "e", "name": "e", "sigma": 7.26401930996228e-08, "units": null, "value": ".4553653577891108", "title": "eccentricity"}, {"units": "au", "title": "perihelion distance", "value": ".8697645398359847", "sigma": 1.09434710373336e-07, "name": "q", "label": "q"}, {"label": "tp", "units": "TDB", "value": "2459813.272369937595", "title": "time of perihelion passage", "sigma": 2.78789183619536e-05, "name": "tp"}, {"sigma": 2.74379067355872e-05, "name": "om", "units": "deg", "title": "longitude of the ascending node", "value": "29.67017103589536", "label": "node"}, {"label": "peri", "sigma": 4.04868331848353e-05, "name": "w", "value": "288.2445123531397", "title": "argument of perihelion", "units": "deg"}, {"units": "deg", "title": "inclination", "value": "3.708739546358355", "name": "i", "sigma": 1.22361337719527e-05, "label": "i"}], "data": [["5.276597653550493E-15", "-7.945038518928055E-15", "-1.771469810544079E-12", "1.163297822726644E-13", "-1.991371095636247E-12", "1.074273802091445E-13"], ["-7.945038518928055E-15", "1.197595583449591E-14", "2.62728746151342E-12", "-1.676332228525495E-13", "2.965667830386237E-12", "-1.553884407637669E-13"], ["-1.771469810544079E-12", "2.62728746151342E-12", "7.77234089032472E-10", "-6.490485933634969E-11", "8.258155435685766E-10", "-6.75927106983659E-11"], ["1.163297822726644E-13", "-1.676332228525495E-13", "-6.490485933634969E-11", "7.528387260307811E-10", "-8.118601319172684E-10", "-6.631545761070101E-11"], ["-1.991371095636247E-12", "2.965667830386237E-12", "8.258155435685766E-10", "-8.118601319172684E-10", "1.639183661336681E-9", "4.068109100332941E-12"], ["1.074273802091445E-13", "-1.553884407637669E-13", "-6.75927106983659E-11", "-6.631545761070101E-11", "4.068109100332941E-12", "1.497229696851206E-10"]], "epoch": "2459816.5"}, "elements": [{"title": "eccentricity", "value": ".4559767667979784", "units": null, "sigma": "7.2867E-8", "name": "e", "label": "e"}, {"sigma": "1.3508E-8", "name": "a", "value": "1.598223708677695", "title": "semi-major axis", "units": "au", "label": "a"}, {"sigma": "1.1008E-7", "name": "q", "units": "au", "value": ".8694708293749654", "title": "perihelion distance", "label": "q"}, {"label": "i", "sigma": "1.2247E-5", "name": "i", "value": "3.722141636432507", "title": "inclination; angle with respect to x-y ecliptic plane", "units": "deg"}, {"label": "node", "sigma": "2.7278E-5", "name": "om", "units": "deg", "value": "29.53608994137669", "title": "longitude of the ascending node"}, {"title": "argument of perihelion", "value": "288.4018183479896", "units": "deg", "sigma": "4.0447E-5", "name": "w", "label": "peri"}, {"label": "M", "name": "ma", "sigma": "5.4592E-6", "title": "mean anomaly", "value": "317.3888538446807", "units": "deg"}, {"label": "tp", "name": "tp", "sigma": "1.0575E-5", "value": "2461287.852531491583", "title": "time of perihelion passage", "units": "TDB"}, {"units": "d", "title": "sidereal orbital period", "value": "737.9973123075491", "name": "per", "sigma": "9.3559E-6", "label": "period"}, {"sigma": "6.1841E-9", "name": "n", "value": ".487806654572172", "title": "mean motion", "units": "deg/d", "label": "n"}, {"label": "Q", "units": "au", "title": "aphelion distance", "value": "2.326976587980425", "sigma": "1.9667E-8", "name": "ad"}], "epoch": "2461200.5"}